{
  "type": "FeatureCollection",
  "features": [
    {
      "type": "Feature",
      "properties": {
        "norad_id": 30565,
        "name": "FENGYUN 1C DEB",
        "group": "fengyun-1c-debris",
        "lat": -71.7242638849229,
        "lon": 18.180251425444613,
        "alt_km": 843.825676264164,
        "timestamp": "2025-12-21T05:44:51.863118+00:00",
        "meta_object_name": "FENGYUN 1C DEB",
        "meta_object_id": "1999-025ALF",
        "meta_epoch": "2025-12-14T14:17:13.563168",
        "meta_mean_motion": 14.09950974,
        "meta_eccentricity": 0.01431996,
        "meta_inclination": 98.4595,
        "meta_ra_of_asc_node": 218.7147,
        "meta_arg_of_pericenter": 350.7343,
        "meta_mean_anomaly": 38.2595,
        "meta_ephemeris_type": 0,
        "meta_classification_type": "U",
        "meta_norad_cat_id": 30565,
        "meta_element_set_no": 999,
        "meta_rev_at_epoch": 95953,
        "meta_bstar": 0.0017219835,
        "meta_mean_motion_dot": 3.298e-05,
        "meta_mean_motion_ddot": 0,
        "tle_line1": "1 30565U 99025ALF 25348.59529587  .00003298  00000+0  17220-2 0  9991",
        "tle_line2": "2 30565  98.4595 218.7147 0143199 350.7343  38.2595 14.09950974959534"
      },
      "geometry": {
        "type": "Point",
        "coordinates": [
          18.180251425444613,
          -71.7242638849229
        ]
      }
    },
    {
      "type": "Feature",
      "properties": {
        "norad_id": 30566,
        "name": "FENGYUN 1C DEB",
        "group": "fengyun-1c-debris",
        "lat": -68.02249444932153,
        "lon": -159.71549954599112,
        "alt_km": 861.3746628230128,
        "timestamp": "2025-12-21T05:44:51.863128+00:00",
        "meta_object_name": "FENGYUN 1C DEB",
        "meta_object_id": "1999-025ALG",
        "meta_epoch": "2025-12-20T03:10:11.674848",
        "meta_mean_motion": 14.11720334,
        "meta_eccentricity": 0.00684497,
        "meta_inclination": 99.2161,
        "meta_ra_of_asc_node": 42.8694,
        "meta_arg_of_pericenter": 161.8309,
        "meta_mean_anomaly": 222.3252,
        "meta_ephemeris_type": 0,
        "meta_classification_type": "U",
        "meta_norad_cat_id": 30566,
        "meta_element_set_no": 999,
        "meta_rev_at_epoch": 96487,
        "meta_bstar": 0.0009956514,
        "meta_mean_motion_dot": 1.807e-05,
        "meta_mean_motion_ddot": 0,
        "tle_line1": "1 30566U 99025ALG 25354.13207957  .00001807  00000+0  99565-3 0  9990",
        "tle_line2": "2 30566  99.2161  42.8694 0068449 161.8309 222.3252 14.11720334964870"
      },
      "geometry": {
        "type": "Point",
        "coordinates": [
          -159.71549954599112,
          -68.02249444932153
        ]
      }
    },
    {
      "type": "Feature",
      "properties": {
        "norad_id": 30567,
        "name": "FENGYUN 1C DEB",
        "group": "fengyun-1c-debris",
        "lat": 59.307208660577764,
        "lon": -179.21199427764498,
        "alt_km": 801.8135632822623,
        "timestamp": "2025-12-21T05:44:51.863138+00:00",
        "meta_object_name": "FENGYUN 1C DEB",
        "meta_object_id": "1999-025ALH",
        "meta_epoch": "2025-12-20T22:37:43.633632",
        "meta_mean_motion": 14.08905582,
        "meta_eccentricity": 0.01091166,
        "meta_inclination": 98.776,
        "meta_ra_of_asc_node": 345.4147,
        "meta_arg_of_pericenter": 166.1245,
        "meta_mean_anomaly": 250.5895,
        "meta_ephemeris_type": 0,
        "meta_classification_type": "U",
        "meta_norad_cat_id": 30567,
        "meta_element_set_no": 999,
        "meta_rev_at_epoch": 96889,
        "meta_bstar": 0.00015670967,
        "meta_mean_motion_dot": 2.44e-06,
        "meta_mean_motion_ddot": 0,
        "tle_line1": "1 30567U 99025ALH 25354.94286613  .00000244  00000+0  15671-3 0  9996",
        "tle_line2": "2 30567  98.7760 345.4147 0109116 166.1245 250.5895 14.08905582968897"
      },
      "geometry": {
        "type": "Point",
        "coordinates": [
          -179.21199427764498,
          59.307208660577764
        ]
      }
    },
    {
      "type": "Feature",
      "properties": {
        "norad_id": 30568,
        "name": "FENGYUN 1C DEB",
        "group": "fengyun-1c-debris",
        "lat": -19.124532069265868,
        "lon": 169.14708442606334,
        "alt_km": 724.4534512719592,
        "timestamp": "2025-12-21T05:44:51.863148+00:00",
        "meta_object_name": "FENGYUN 1C DEB",
        "meta_object_id": "1999-025ALJ",
        "meta_epoch": "2025-12-20T18:20:48.551712",
        "meta_mean_motion": 14.55348895,
        "meta_eccentricity": 0.00159313,
        "meta_inclination": 98.9417,
        "meta_ra_of_asc_node": 165.5093,
        "meta_arg_of_pericenter": 170.4073,
        "meta_mean_anomaly": 202.8983,
        "meta_ephemeris_type": 0,
        "meta_classification_type": "U",
        "meta_norad_cat_id": 30568,
        "meta_element_set_no": 999,
        "meta_rev_at_epoch": 97776,
        "meta_bstar": 0.0019834124,
        "meta_mean_motion_dot": 8.578e-05,
        "meta_mean_motion_ddot": 0,
        "tle_line1": "1 30568U 99025ALJ 25354.76445083  .00008578  00000+0  19834-2 0  9997",
        "tle_line2": "2 30568  98.9417 165.5093 0015931 170.4073 202.8983 14.55348895977762"
      },
      "geometry": {
        "type": "Point",
        "coordinates": [
          169.14708442606334,
          -19.124532069265868
        ]
      }
    },
    {
      "type": "Feature",
      "properties": {
        "norad_id": 30569,
        "name": "FENGYUN 1C DEB",
        "group": "fengyun-1c-debris",
        "lat": -17.27107833619287,
        "lon": -47.870903104000625,
        "alt_km": 656.3822907368794,
        "timestamp": "2025-12-21T05:44:51.863158+00:00",
        "meta_object_name": "FENGYUN 1C DEB",
        "meta_object_id": "1999-025ALK",
        "meta_epoch": "2025-12-20T09:18:18.415296",
        "meta_mean_motion": 14.73970387,
        "meta_eccentricity": 0.00059607,
        "meta_inclination": 98.7376,
        "meta_ra_of_asc_node": 133.9526,
        "meta_arg_of_pericenter": 62.2391,
        "meta_mean_anomaly": 297.9419,
        "meta_ephemeris_type": 0,
        "meta_classification_type": "U",
        "meta_norad_cat_id": 30569,
        "meta_element_set_no": 999,
        "meta_rev_at_epoch": 98319,
        "meta_bstar": 0.0021051309,
        "meta_mean_motion_dot": 0.00013798,
        "meta_mean_motion_ddot": 0,
        "tle_line1": "1 30569U 99025ALK 25354.38771314  .00013798  00000+0  21051-2 0  9999",
        "tle_line2": "2 30569  98.7376 133.9526 0005960  62.2391 297.9419 14.73970387983197"
      },
      "geometry": {
        "type": "Point",
        "coordinates": [
          -47.870903104000625,
          -17.27107833619287
        ]
      }
    },
    {
      "type": "Feature",
      "properties": {
        "norad_id": 30570,
        "name": "FENGYUN 1C DEB",
        "group": "fengyun-1c-debris",
        "lat": 50.74329445605756,
        "lon": 16.73475939579533,
        "alt_km": 858.5216847949923,
        "timestamp": "2025-12-21T05:44:51.863179+00:00",
        "meta_object_name": "FENGYUN 1C DEB",
        "meta_object_id": "1999-025ALL",
        "meta_epoch": "2025-12-20T20:08:19.847040",
        "meta_mean_motion": 14.14281895,
        "meta_eccentricity": 0.00356461,
        "meta_inclination": 98.7142,
        "meta_ra_of_asc_node": 27.1613,
        "meta_arg_of_pericenter": 188.775,
        "meta_mean_anomaly": 345.8361,
        "meta_ephemeris_type": 0,
        "meta_classification_type": "U",
        "meta_norad_cat_id": 30570,
        "meta_element_set_no": 999,
        "meta_rev_at_epoch": 97112,
        "meta_bstar": 0.00034295664,
        "meta_mean_motion_dot": 6.16e-06,
        "meta_mean_motion_ddot": 0,
        "tle_line1": "1 30570U 99025ALL 25354.83911860  .00000616  00000+0  34296-3 0  9994",
        "tle_line2": "2 30570  98.7142  27.1613 0035646 188.7750 345.8361 14.14281895971121"
      },
      "geometry": {
        "type": "Point",
        "coordinates": [
          16.73475939579533,
          50.74329445605756
        ]
      }
    },
    {
      "type": "Feature",
      "properties": {
        "norad_id": 30571,
        "name": "FENGYUN 1C DEB",
        "group": "fengyun-1c-debris",
        "lat": -58.15630878896109,
        "lon": -173.11328713798244,
        "alt_km": 850.7744484760196,
        "timestamp": "2025-12-21T05:44:51.863190+00:00",
        "meta_object_name": "FENGYUN 1C DEB",
        "meta_object_id": "1999-025ALM",
        "meta_epoch": "2025-12-20T20:56:49.057728",
        "meta_mean_motion": 14.10702784,
        "meta_eccentricity": 0.0021143,
        "meta_inclination": 98.7303,
        "meta_ra_of_asc_node": 20.8546,
        "meta_arg_of_pericenter": 210.2314,
        "meta_mean_anomaly": 327.5854,
        "meta_ephemeris_type": 0,
        "meta_classification_type": "U",
        "meta_norad_cat_id": 30571,
        "meta_element_set_no": 999,
        "meta_rev_at_epoch": 97001,
        "meta_bstar": 0.00018109947,
        "meta_mean_motion_dot": 2.81e-06,
        "meta_mean_motion_ddot": 0,
        "tle_line1": "1 30571U 99025ALM 25354.87279002  .00000281  00000+0  18110-3 0  9999",
        "tle_line2": "2 30571  98.7303  20.8546 0021143 210.2314 327.5854 14.10702784970012"
      },
      "geometry": {
        "type": "Point",
        "coordinates": [
          -173.11328713798244,
          -58.15630878896109
        ]
      }
    }
  ]
}